NORAD_CAT_ID,OBJECT_NAME,OBJECT_TYPE,EPOCH,MEAN_MOTION,ECCENTRICITY,INCLINATION,RA_OF_ASC_NODE,ARG_OF_PERICENTER,MEAN_ANOMALY,BSTAR,MEAN_MOTION_DOT,MEAN_MOTION_DDOT,TLE_LINE0,TLE_LINE1,TLE_LINE2,SEMIMAJOR_AXIS,PERIOD,APOGEE,PERIGEE,DECAYED
53745.0,STARLINK-4656,PAYLOAD,2022-11-06 22:00:00,15.08809982,0.0001351999999999,53.2151,335.5213,63.7527,103.7769,0.0022791,0.0003614,0.0,0 STARLINK-4656,1 53745U 22107AX  22310.91667824  .00036140  00000-0  22791-2 0  9994,2 53745  53.2151 335.5213 0001352  63.7527 103.7769 15.08809982  9817,6917.972,95.439,540.7719999999998,538.9019999999998,0.0
53745.0,STARLINK-4656,PAYLOAD,2022-11-07 14:00:01,15.08809211,0.0001426,53.215,332.5299,53.1404,137.5447,0.0022213,0.00035211,0.0,0 STARLINK-4656,1 53745U 22107AX  22311.58334491  .00035211  00000-0  22213-2 0  9996,2 53745  53.2150 332.5299 0001426  53.1404 137.5447 15.08809211  9910,6917.975,95.44,540.826,538.8530000000002,0.0
53745.0,STARLINK-4656,PAYLOAD,2022-11-07 22:00:00,15.088089300000002,0.0001281999999999,53.2151,331.0317,61.9739,140.2919,0.0035249,0.0005621,0.0,0 STARLINK-4656,1 53745U 22107AX  22311.91667824  .00056210  00000-0  35249-2 0  9997,2 53745  53.2151 331.0317 0001282  61.9739 140.2919 15.08808930  1301,6917.975,95.44,540.727,538.953,0.0
53745.0,STARLINK-4656,PAYLOAD,2022-11-08 14:00:01,15.08891312,0.0001482,53.2149,328.0401,56.6148,168.889,-0.0013352,-0.00021505,0.0,0 STARLINK-4656,1 53745U 22107AX  22312.58334491 -.00021505  00000-0 -13352-2 0  9994,2 53745  53.2149 328.0401 0001482  56.6148 168.8890 15.08891312  1305,6917.724,95.434,540.614,538.563,0.0
53745.0,STARLINK-4656,PAYLOAD,2022-11-08 22:00:00,15.08861965,0.0001375999999999,53.215,326.5418,66.5946,170.5614,-0.0002823,-4.781e-05,0.0,0 STARLINK-4656,1 53745U 22107AX  22312.91667824 -.00004781  00000-0 -28230-3 0  9999,2 53745  53.2150 326.5418 0001376  66.5946 170.5614 15.08861965 10110,6917.813,95.436,540.63,538.726,0.0
53745.0,STARLINK-4656,PAYLOAD,2022-11-09 14:00:01,15.08788311,0.0001409,53.2146,323.5504,57.1524,203.2048,-1.8123e-05,-5.76e-06,0.0,0 STARLINK-4656,1 53745U 22107AX  22313.58334491 -.00000576  00000-0 -18123-4 0  9993,2 53745  53.2146 323.5504 0001409  57.1524 203.2048 15.08788311  1302,6918.038000000001,95.441,540.878,538.929,0.0
53745.0,STARLINK-4656,PAYLOAD,2022-11-09 22:00:01,15.08764294,0.0001301,53.2147,322.0523,67.2715,204.6857,0.0037439,0.00059677,0.0,0 STARLINK-4656,1 53745U 22107AX  22313.91668981  .00059677  00000-0  37439-2 0  9997,2 53745  53.2147 322.0523 0001301  67.2715 204.6857 15.08764294 10265,6918.111999999999,95.442,540.877,539.077,0.0
53745.0,STARLINK-4656,PAYLOAD,2022-11-10 14:00:01,15.08816958,0.0001428,53.2143,319.0611,59.0218,235.9466,-5.3462e-05,-1.138e-05,0.0,0 STARLINK-4656,1 53745U 22107AX  22314.58334491 -.00001138  00000-0 -53462-4 0  9994,2 53745  53.2143 319.0611 0001428  59.0218 235.9466 15.08816958  1305,6917.951,95.439,540.804,538.828,0.0
53745.0,STARLINK-4656,PAYLOAD,2022-11-10 16:00:00,15.08827379,0.0001416999999999,53.2144,318.6864,61.6456,326.2114,-0.0013317,-0.00021412,0.0,0 STARLINK-4656,1 53745U 22107AX  22314.66667824 -.00021412  00000-0 -13317-2 0  9992,2 53745  53.2144 318.6864 0001417  61.6456 326.2114 15.08827379 10383,6917.919,95.438,540.764,538.804,0.0
53745.0,STARLINK-4656,PAYLOAD,2022-11-10 22:00:00,15.08796913,0.0001358,53.2143,317.5631,69.2121,237.3297,0.0036236,0.00057786,0.0,0 STARLINK-4656,1 53745U 22107AX  22314.91667824  .00057786  00000-0  36236-2 0  9996,2 53745  53.2143 317.5631 0001358  69.2121 237.3297 15.08796913  1304,6918.012,95.44,540.817,538.938,0.0
53745.0,STARLINK-4656,PAYLOAD,2022-11-11 14:00:01,15.08860462,0.0001327,53.2141,314.5718,61.8635,267.7861,-0.00044467,-7.362e-05,0.0,0 STARLINK-4656,1 53745U 22107AX  22315.58334491 -.00007362  00000-0 -44467-3 0  9994,2 53745  53.2141 314.5718 0001327  61.8635 267.7861 15.08860462  1304,6917.818,95.436,540.601,538.765,0.0
53745.0,STARLINK-4656,PAYLOAD,2022-11-11 16:00:01,15.08866863,0.000132,53.2143,314.197,65.2463,357.3682,-0.0011824,-0.0001907,0.0,0 STARLINK-4656,1 53745U 22107AX  22315.66668981 -.00019070  00000-0 -11824-2 0  9996,2 53745  53.2143 314.1970 0001320  65.2463 357.3682 15.08866863 10535,6917.7980000000025,95.436,540.576,538.75,0.0
53745.0,STARLINK-4656,PAYLOAD,2022-11-11 22:00:00,15.088388,0.0001303,53.2143,313.0737,72.5837,268.6877,0.0037491,0.00059884,0.0,0 STARLINK-4656,1 53745U 22107AX  22315.91667824  .00059884  00000-0  37491-2 0  9992,2 53745  53.2143 313.0737 0001303  72.5837 268.6877 15.08838800  1306,6917.884,95.438,540.65,538.8480000000002,0.0
53745.0,STARLINK-4656,PAYLOAD,2022-11-12 08:00:01,15.08885588,0.0001511,53.2145,311.205,64.7607,21.045,-0.0015676,-0.00025181,0.0,0 STARLINK-4656,1 53745U 22107AX  22316.33334491 -.00025181  00000-0 -15676-2 0  9996,2 53745  53.2145 311.2050 0001511  64.7607  21.0450 15.08885588 10634,6917.741,95.435,540.651,538.561,0.0
53745.0,STARLINK-4656,PAYLOAD,2022-11-12 14:00:01,15.08891658,0.000145,53.2143,310.0821,63.2693,301.2644,-0.0033328,-0.00053014,0.0,0 STARLINK-4656,1 53745U 22107AX  22316.58334491 -.00053014  00000-0 -33328-2 0  9993,2 53745  53.2143 310.0821 0001450  63.2693 301.2644 15.08891658  1303,6917.722,95.434,540.591,538.5840000000002,0.0
53745.0,STARLINK-4656,PAYLOAD,2022-11-12 22:00:00,15.08833156,0.0001356,53.2146,308.5841,72.1061,304.0659,0.0028913,0.00046019,0.0,0 STARLINK-4656,1 53745U 22107AX  22316.91667824  .00046019  00000-0  28913-2 0  9998,2 53745  53.2146 308.5841 0001356  72.1061 304.0659 15.08833156  1309,6917.901,95.438,540.7040000000002,538.828,0.0
53745.0,STARLINK-4656,PAYLOAD,2022-11-13 14:00:01,15.08821746,0.0001486999999999,53.2164,305.5978,61.7926,337.5833,0.0011934,0.00018746,0.0,0 STARLINK-4656,1 53745U 22107AX  22317.58334491  .00018746  00000-0  11934-2 0  9994,2 53745  53.2164 305.5978 0001487  61.7926 337.5833 15.08821746 10820,6917.936,95.439,540.83,538.7719999999998,0.0
53745.0,STARLINK-4656,PAYLOAD,2022-11-13 22:00:00,15.08854547,0.0001403,53.2151,304.0948,70.3807,340.6036,-0.0005888,-9.65e-05,0.0,0 STARLINK-4656,1 53745U 22107AX  22317.91667824 -.00009650  00000-0 -58880-3 0  9998,2 53745  53.2151 304.0948 0001403  70.3807 340.6036 15.08854547  1307,6917.8359999999975,95.437,540.6709999999998,538.73,0.0
53745.0,STARLINK-4656,PAYLOAD,2022-11-14 14:00:01,15.08846183,0.0001485,53.2155,301.1039,62.5602,11.6252,-0.0025936,-0.00041335,0.0,0 STARLINK-4656,1 53745U 22107AX  22318.58334491 -.00041335  00000-0 -25936-2 0  9994,2 53745  53.2155 301.1039 0001485  62.5602  11.6252 15.08846183  1308,6917.861,95.437,540.754,538.6990000000002,0.0
53745.0,STARLINK-4656,PAYLOAD,2022-11-14 22:00:00,15.08844286,0.0001393,53.2163,299.6083,68.8246,16.94,-0.0024045,-0.00038356,0.0,0 STARLINK-4656,1 53745U 22107AX  22318.91667824 -.00038356  00000-0 -24045-2 0  9999,2 53745  53.2163 299.6083 0001393  68.8246  16.9400 15.08844286  1303,6917.8669999999975,95.437,540.696,538.769,0.0
53745.0,STARLINK-4656,PAYLOAD,2022-11-15 02:00:01,15.08860906,0.0001386999999999,53.2161,298.8601,70.2682,201.284,-0.0031994,-0.00050876,0.0,0 STARLINK-4656,1 53745U 22107AX  22319.08334491 -.00050876  00000-0 -31994-2 0  9991,2 53745  53.2161 298.8601 0001387  70.2682 201.2840 15.08860906 11048,6917.816,95.436,540.641,538.722,0.0
53745.0,STARLINK-4656,PAYLOAD,2022-11-15 14:00:01,15.0883906,0.0001373,53.2153,296.6140000000001,62.3158,46.6225,-0.0012371,-0.00019922,0.0,0 STARLINK-4656,1 53745U 22107AX  22319.58334491 -.00019922  00000-0 -12371-2 0  9991,2 53745  53.2153 296.6140 0001373  62.3158  46.6225 15.08839060  1301,6917.8830000000025,95.438,540.698,538.798,0.0
53745.0,STARLINK-4656,PAYLOAD,2022-11-15 16:00:00,15.08834481,0.0001326,53.2154,296.2394,65.5821,136.2538,-0.00063057,-0.00010308,0.0,0 STARLINK-4656,1 53745U 22107AX  22319.66667824 -.00010308  00000-0 -63057-3 0  9996,2 53745  53.2154 296.2394 0001326  65.5821 136.2538 15.08834481 11136,6917.897,95.438,540.68,538.845,0.0
53745.0,STARLINK-4656,PAYLOAD,2022-11-15 22:00:00,15.08836947,0.0001386999999999,53.2155,295.1166,72.2725,48.2496,-0.00059606,-9.761e-05,0.0,0 STARLINK-4656,1 53745U 22107AX  22319.91667824 -.00009761  00000-0 -59606-3 0  9990,2 53745  53.2155 295.1166 0001387  72.2725  48.2496 15.08836947  1309,6917.89,95.438,540.714,538.795,0.0
53745.0,STARLINK-4656,PAYLOAD,2022-11-16 14:00:01,15.08821525,0.0001489,53.216,292.1282,62.5164,81.2277,0.0027721,0.00044084,0.0,0 STARLINK-4656,1 53745U 22107AX  22320.58335648  .00044084  00000-0  27721-2 0  9998,2 53745  53.2160 292.1282 0001489  62.5164  81.2277 15.08821525  1303,6917.937,95.439,540.832,538.7719999999998,0.0
53745.0,STARLINK-4656,PAYLOAD,2022-11-16 20:00:01,15.08866793,0.0001448,53.2166,291.0065,63.7413,358.6251,-0.001984,-0.00031748,0.0,0 STARLINK-4656,1 53745U 22107AX  22320.83334491 -.00031748  00000-0 -19840-2 0  9999,2 53745  53.2166 291.0065 0001448  63.7413 358.6251 15.08866793 11312,6917.7980000000025,95.436,540.665,538.6619999999998,0.0
53745.0,STARLINK-4656,PAYLOAD,2022-11-16 22:00:08,15.08878044,0.0001483,53.217,290.6326,65.2476,90.4586,-0.0038351,-0.00060871,0.0,0 STARLINK-4656,1 53745U 22107AX  22320.91675926 -.00060871  00000-0 -38351-2 0  9996,2 53745  53.2170 290.6326 0001483  65.2476  90.4586 15.08878044  1309,6917.764,95.435,540.655,538.6030000000002,0.0
53745.0,STARLINK-4656,PAYLOAD,2022-11-17 14:00:01,15.08849618,0.000135,53.2144,287.6356,67.7374,110.737,-0.0020335,-0.00032514,0.0,0 STARLINK-4656,1 53745U 22107AX  22321.58334491 -.00032514  00000-0 -20335-2 0  9995,2 53745  53.2144 287.6356 0001350  67.7374 110.7370 15.08849618  1308,6917.851,95.437,540.65,538.7819999999998,0.0
53745.0,STARLINK-4656,PAYLOAD,2022-11-17 22:00:00,15.08837015,0.0001335,53.2153,286.1402,75.8492,114.2122,0.0012899,0.00020299,0.0,0 STARLINK-4656,1 53745U 22107AX  22321.91667824  .00020299  00000-0  12899-2 0  9992,2 53745  53.2153 286.1402 0001335  75.8492 114.2122 15.08837015  1300,6917.89,95.438,540.678,538.831,0.0
